STARLINK-31820          
1 59725U 24088T   26068.45865526  .00000496  00000+0  28884-4 0  9995
2 59725  53.1609 141.2066 0001205  67.9600 292.1529 15.30186376103644
2025-313BC              
1 67298U 25313BC  26068.18968176  .00075331  00000+0  26410-2 0  9997
2 67298  97.3985 144.8110 0008478 328.9209  31.1528 15.29126358  7890
